STARLINK-30036          
1 56692U 23067E   23159.91667824 -.02049673  00000+0 -41272-1 0  9998
2 56692  43.0007 344.0752 0000657 228.3489 315.6655 15.49164084  3559
STARLINK-30067          
1 56693U 23067F   23159.91667824 -.01347574  00000+0 -26063-1 0  9990
2 56693  43.0005 344.0725 0001965 203.6388 341.5078 15.49975707  1305
STARLINK-30126          
1 56694U 23067G   23159.91667824 -.02041619  00000+0 -40120-1 0  9993
2 56694  43.0006 344.0727 0001636 246.9138 297.6930 15.49825222  1301
STARLINK-30121          
1 56695U 23067H   23159.91667824 -.00061362  00000+0 -10853-2 0  9990
2 56695  43.0006 344.0708 0002284 243.1238 302.5849 15.49602170  1301
STARLINK-30118          
1 56696U 23067J   23159.67784165  .00261762  34067-4  72515-3 0  9995
2 56696  43.0013 342.6020 0008679 319.1453  40.8772 15.93010365  4137
STARLINK-30130          
1 56697U 23067K   23159.91667824  .00060782  00000+0  10734-2 0  9993
2 56697  43.0006 344.0571 0000921 251.4704 299.6572 15.49518510  1300
STARLINK-30068          
1 56698U 23067L   23159.91667824  .00339705  00000+0  21001-2 0  9997
2 56698  43.0021 343.2647 0008817 300.1080 212.5443 15.75291170  1304
STARLINK-30127          
1 56699U 23067M   23159.91667824  .00046794  00000+0  82889-3 0  9993
2 56699  43.0005 344.0696 0001690 251.5712 294.8324 15.49529490  1304
STARLINK-30053          
1 56700U 23067N   23159.91667824  .00063133  00000+0  11143-2 0  9996
2 56700  43.0005 344.0676 0000979 254.4075 292.5898 15.49519945  1303
STARLINK-30125          
1 56701U 23067P   23159.91667824  .00134280  00000+0  23756-2 0  9992
2 56701  43.0004 344.0630 0002293 270.9367 281.2434 15.49112267  1308
STARLINK-30117          
1 56702U 23067Q   23159.91667824  .00037796  00000+0  67130-3 0  9992
2 56702  43.0007 344.0662 0001700 276.1419 272.0272 15.49534763  1302
STARLINK-30132          
1 56703U 23067R   23159.91667824  .00015200  00000+0  27418-3 0  9994
2 56703  43.0006 344.0647 0001989 285.4068 263.3467 15.49547198  1302
STARLINK-30066          
1 56704U 23067S   23159.91667824  .00054691  00000+0  96694-3 0  9994
2 56704  43.0007 344.0546 0001622 218.9854 333.3199 15.49525377  1305
STARLINK-30080          
1 56705U 23067T   23159.91667824 -.00573478  00000+0 -56375-2 0  9997
2 56705  43.0015 343.2073 0001383 275.3993 260.2874 15.66875111  1307
STARLINK-30079          
1 56706U 23067U   23159.91667824  .00057989  00000+0  10230-2 0  9990
2 56706  43.0006 344.0609 0001307 256.6514 293.2224 15.49566108  1308
STARLINK-30070          
1 56707U 23067V   23159.91667824  .00030842  00000+0  54906-3 0  9999
2 56707  43.0005 344.0621 0001335 266.4023 282.9246 15.49550968  1303
STARLINK-30071          
1 56708U 23067W   23159.91667824  .00056458  00000+0  99787-3 0  9997
2 56708  43.0006 344.0563 0001239 263.1898 288.5266 15.49522575  1304
STARLINK-30085          
1 56709U 23067X   23159.91667824  .00053591  00000+0  94639-3 0  9994
2 56709  43.0006 344.0590 0000956 282.8729 267.5947 15.49566167  1309
ONEWEB-0561             
1 56710U 23068A   23159.91667824 -.01131621  00000+0 -30188+0 0  9996
2 56710  86.9226 132.5923 0013041 147.5754 347.5629 14.51557378  1307
ONEWEB-0668             
1 56711U 23068B   23159.41290259  .00002038  00000+0  24307-3 0  9992
2 56711  86.6788 132.4816 0016232 150.6729 209.5409 14.83687068  2949
ONEWEB-0676             
1 56712U 23068C   23159.41519239  .00002051  00000+0  24571-3 0  9993
2 56712  86.6750 132.4725 0015930 150.6016 209.6106 14.83505092  2942
ONEWEB-0677             
1 56713U 23068D   23159.91667824 -.01001462  00000+0 -25993+0 0  9996
2 56713  86.8752 132.5472 0011483 141.8735   7.0153 14.52984911  1304
ONEWEB-0678             
1 56714U 23068E   23159.62750863  .00002118  00000+0  25888-3 0  9994
2 56714  86.6771 132.3973 0012281 147.7123 212.4855 14.82726923  2976
ONEWEB-0679             
1 56715U 23068F   23159.41228965  .00002007  00000+0  23898-3 0  9991
2 56715  86.6787 132.4810 0016480 150.3078 209.9084 14.83734976  2949
ONEWEB-0680             
1 56716U 23068G   23159.41561454  .00002054  00000+0  24628-3 0  9999
2 56716  86.6753 132.4737 0015389 151.7313 208.4749 14.83471634  2946
ONEWEB-0681             
1 56717U 23068H   23159.42151554  .00002069  00000+0  25111-3 0  9991
2 56717  86.6772 132.4822 0013017 152.3037 207.8882 14.83010918  2944
ONEWEB-0682             
1 56718U 23068J   23159.42212151  .00002078  00000+0  25253-3 0  9990
2 56718  86.6772 132.4840 0012854 152.0443 208.1473 14.82956595  2940
ONEWEB-0683             
1 56719U 23068K   23159.42311902  .00002043  00000+0  24866-3 0  9996
2 56719  86.6770 132.4844 0012606 150.9996 209.1930 14.82879123  2948
ONEWEB-0684             
1 56720U 23068L   23159.62693709  .00001894  00000+0  23094-3 0  9993
2 56720  86.6772 132.3970 0012319 148.3215 211.8751 14.82773433  2978
ONEWEB-0686             
1 56721U 23068M   23159.75088156  .00002008  00000+0  23978-3 0  9991
2 56721  86.6749 132.3306 0016102 149.7983 210.4172 14.83628376  2997
ONEWEB-0694             
1 56722U 23068N   23159.41425705  .00002028  00000+0  24249-3 0  9994
2 56722  86.6791 132.4833 0015814 150.4976 209.7144 14.83577285  2948
ONEWEB-0696             
1 56723U 23068P   23159.62653499  .00001873  00000+0  22821-3 0  9992
2 56723  86.6768 132.4007 0012431 148.9726 211.2233 14.82802428  2972
ONEWEB-0703             
1 56724U 23068Q   23159.42360033 -.00001737  00000+0 -21799-3 0  9994
2 56724  86.6776 132.4814 0012571 149.7483 210.4469 14.82843420  2948
ONEWEB-0721             
1 56725U 23068R   23159.62817107  .00001774  00000+0  21658-3 0  9999
2 56725  86.6770 132.3976 0012081 147.2993 212.8980 14.82677152  2970
IRIDIUM 181             
1 56726U 23068S   23159.44840150  .00001573  00000+0  20298-3 0  9990
2 56726  86.6759 132.4944 0002787 117.9834 242.1670 14.80358964  2948
IRIDIUM 177             
1 56727U 23068T   23159.44261895  .00000067  00000+0  52928-5 0  9998
2 56727  86.6756 132.4883 0002702 110.5174 249.6338 14.80314022  2941
IRIDIUM 174             
1 56728U 23068U   23159.70757948  .00001619  00000+0  20920-3 0  9996
2 56728  86.6803 132.3867 0002503 106.9071 253.2425 14.80315132  2985
IRIDIUM 178             
1 56729U 23068V   23159.63428490  .00001528  00000+0  19765-3 0  9990
2 56729  86.6747 132.3977 0002152 103.7115 256.4346 14.80242736  2974
IRIDIUM 179             
1 56730U 23068W   23159.62841379  .00000056  00000+0  38783-5 0  9994
2 56730  86.6788 132.4042 0002040 105.4000 254.7448 14.80218800  2972
2023-069A               
1 56731U 23069A   23159.59324370  .00007072  00000+0  23939-3 0  9999
2 56731  41.0050 253.7497 0032803 265.4818  94.2255 15.30341214  2790
2023-069B               
1 56732U 23069B   23159.65277627  .00021115  00000+0  68418-3 0  9994
2 56732  41.0050 253.3233 0031015 265.7643  93.9633 15.31041673  2803
2023-069C               
1 56733U 23069C   23159.71667042  .00011314  00000+0  37135-3 0  9998
2 56733  41.0052 252.9303 0030457 266.4877  93.2459 15.30994189  2813
CZ-2C R/B               
1 56734U 23069D   23159.59516767  .00023545  00000+0  43533-3 0  9990
2 56734  41.1969 251.4274 0053302 170.6622 189.5210 15.46908457  2826
CZ-2C DEB               
1 56735U 23069E   23159.56274674  .00041930  00000+0  28148-2 0  9998
2 56735  41.1426 260.3202 0210832 248.8442 108.9717 14.89732778  2729
CZ-2C DEB               
1 56736U 23069F   23159.55040554  .00060655  00000+0  23765-2 0  9991
2 56736  40.8550 256.1676 0120023 294.6733  64.1622 15.18411384  2779
CZ-2C DEB               
1 56737U 23069G   23159.63910561  .00084215  00000+0  29542-2 0  9992
2 56737  41.0971 254.9011 0114992 302.7591  56.2189 15.22308319  2756
2023-069H               
1 56738U 23069H   23159.60976254  .00045878  00000+0  30113-2 0  9999
2 56738  40.9049 260.0048 0203365 248.1623 109.7438 14.91477790  2735
PROGRESS-MS 23          
1 56740U 23071A   23159.62833686  .00015293  00000+0  26961-3 0  9993
2 56740  51.6424  10.9615 0005598  65.0896  31.7520 15.50597012400466
2023-072A               
1 56743U 23072A   23159.70966872  .00003751  00000+0  25323-3 0  9997
2 56743  97.5435 346.7480 0007080 243.9745 116.0754 15.07185105  2156
SNIPE 4                 
1 56744U 23072B   23159.70919212  .00005641  00000+0  37799-3 0  9994
2 56744  97.5521 346.7649 0007083 245.0453 115.0040 15.07257557  2150
SNIPE 2                 
1 56745U 23072C   23159.70795462  .00005712  00000+0  38129-3 0  9991
2 56745  97.5530 346.7678 0007368 249.0722 110.9717 15.07391719  2156
2023-072D               
1 56746U 23072D   23159.57380959  .00006195  00000+0  41142-3 0  9993
2 56746  97.5529 346.6392 0007687 253.5687 106.4696 15.07546493  2136
2023-072E               
1 56747U 23072E   23159.57242911  .00005749  00000+0  38067-3 0  9995
2 56747  97.5530 346.6408 0008183 256.8285 103.2030 15.07686095  2139
2023-072F               
1 56748U 23072F   23159.57199388  .00004623  00000+0  30664-3 0  9990
2 56748  97.5323 346.6052 0008484 257.5617 102.4661 15.07718172  2139
2023-072G               
1 56749U 23072G   23159.57065801  .00005323  00000+0  35100-3 0  9991
2 56749  97.5332 346.6080 0008865 260.7803  99.2423 15.07868678  2133
2023-072H               
1 56750U 23072H   23159.57318822  .00005283  00000+0  28824-3 0  9997
2 56750  97.5388 346.7607 0012907 297.2214  62.7702 15.14721339  2141
AXIOM-2 DEB             
1 56751U 23070B   23155.18545233  .00137659  00000+0  93325-3 0  9998
2 56751  51.4359  32.6116 0064812 169.8500 272.9083 15.71117998   653
ELECTRON KICK STAGE R/B 
1 56752U 23073A   23159.36281201  .00009841  00000+0  64177-3 0  9992
2 56752  32.7355 123.6286 0012544 337.0633  22.9475 15.06807237  1998
TROPICS-03              
1 56753U 23073B   23159.29823194  .00007478  00000+0  49050-3 0  9995
2 56753  32.7354 124.0641 0010915 347.2827  12.7566 15.06580859  1969
